[{"OBJECT_NAME":"STARLINK-35394","OBJECT_ID":"2025-232U","EPOCH":"2026-03-09T12:40:25.318848","MEAN_MOTION":15.30199264,"ECCENTRICITY":0.000127,"INCLINATION":53.1578,"RA_OF_ASC_NODE":104.458,"ARG_OF_PERICENTER":93.356,"MEAN_ANOMALY":266.7586,"EPHEMERIS_TYPE":0,"CLASSIFICATION_TYPE":"U","NORAD_CAT_ID":66023,"ELEMENT_SET_NO":999,"REV_AT_EPOCH":2341,"BSTAR":0.0011406435,"MEAN_MOTION_DOT":0.00033575,"MEAN_MOTION_DDOT":0},{"OBJECT_NAME":"DELTA 1 DEB","OBJECT_ID":"1977-065GB","EPOCH":"2026-03-09T02:53:34.268064","MEAN_MOTION":14.47196386,"ECCENTRICITY":0.03689655,"INCLINATION":29.1068,"RA_OF_ASC_NODE":351.8301,"ARG_OF_PERICENTER":308.0029,"MEAN_ANOMALY":48.7782,"EPHEMERIS_TYPE":0,"CLASSIFICATION_TYPE":"U","NORAD_CAT_ID":19429,"ELEMENT_SET_NO":999,"REV_AT_EPOCH":87217,"BSTAR":0.0013714479,"MEAN_MOTION_DOT":0.0001237,"MEAN_MOTION_DDOT":0}]
